{
  "type": "FeatureCollection",
  "features": [
    {
      "type": "Feature",
      "geometry": {
        "type": "Polygon",
        "coordinates": [
          [
            [
              78.40163451313956,
              17.47512423278817
            ],
            [
              78.41769892149338,
              17.47512423278817
            ],
            [
              78.41769892149338,
              17.488978298201783
            ],
            [
              78.40163451313956,
              17.488978298201783
            ],
            [
              78.40163451313956,
              17.47512423278817
            ]
          ]
        ]
      },
      "properties": {
        "name": "Analysis Extent"
      }
    }
  ]
}