{
  "type": "FeatureCollection",
  "features": [
    {
      "type": "Feature",
      "geometry": {
        "type": "Polygon",
        "coordinates": [
          [
            [
              78.46331290432414,
              17.462269824637573
            ],
            [
              78.47695371034959,
              17.462269824637573
            ],
            [
              78.47695371034959,
              17.472911902096925
            ],
            [
              78.46331290432414,
              17.472911902096925
            ],
            [
              78.46331290432414,
              17.462269824637573
            ]
          ]
        ]
      },
      "properties": {
        "name": "Analysis Extent"
      }
    }
  ]
}