{
  "type": "FeatureCollection",
  "features": [
    {
      "type": "Feature",
      "geometry": {
        "type": "Point",
        "coordinates": [
          78.40783918631953,
          17.576373873751205
        ]
      },
      "properties": {
        "id": 1,
        "area_pixels": 78,
        "from_class": "Barren",
        "to_class": "Background"
      }
    },
    {
      "type": "Feature",
      "geometry": {
        "type": "Point",
        "coordinates": [
          78.4081501642869,
          17.57790290809653
        ]
      },
      "properties": {
        "id": 2,
        "area_pixels": 74,
        "from_class": "Background",
        "to_class": "Barren"
      }
    },
    {
      "type": "Feature",
      "geometry": {
        "type": "Point",
        "coordinates": [
          78.40733395834906,
          17.579541644755444
        ]
      },
      "properties": {
        "id": 3,
        "area_pixels": 57,
        "from_class": "Background",
        "to_class": "Barren"
      }
    }
  ]
}