{
  "type": "FeatureCollection",
  "features": [
    {
      "type": "Feature",
      "geometry": {
        "type": "Polygon",
        "coordinates": [
          [
            [
              78.40683263211078,
              17.563690942720264
            ],
            [
              78.44337969731099,
              17.563690942720264
            ],
            [
              78.44337969731099,
              17.582999152347195
            ],
            [
              78.40683263211078,
              17.582999152347195
            ],
            [
              78.40683263211078,
              17.563690942720264
            ]
          ]
        ]
      },
      "properties": {
        "name": "Analysis Extent"
      }
    }
  ]
}