{
  "type": "FeatureCollection",
  "features": [
    {
      "type": "Feature",
      "geometry": {
        "type": "Polygon",
        "coordinates": [
          [
            [
              78.38698694984332,
              17.464358963232858
            ],
            [
              78.4235340150435,
              17.464358963232858
            ],
            [
              78.4235340150435,
              17.495177994355007
            ],
            [
              78.38698694984332,
              17.495177994355007
            ],
            [
              78.38698694984332,
              17.464358963232858
            ]
          ]
        ]
      },
      "properties": {
        "name": "Analysis Extent"
      }
    }
  ]
}