{
  "type": "FeatureCollection",
  "features": [
    {
      "type": "Feature",
      "geometry": {
        "type": "Polygon",
        "coordinates": [
          [
            [
              78.38076682466067,
              17.48975653720866
            ],
            [
              78.38761939938573,
              17.48975653720866
            ],
            [
              78.38761939938573,
              17.494708525610843
            ],
            [
              78.38076682466067,
              17.494708525610843
            ],
            [
              78.38076682466067,
              17.48975653720866
            ]
          ]
        ]
      },
      "properties": {
        "name": "Analysis Extent"
      }
    }
  ]
}