{
  "type": "FeatureCollection",
  "features": [
    {
      "type": "Feature",
      "geometry": {
        "type": "Polygon",
        "coordinates": [
          [
            [
              78.41043026119416,
              17.466614910883983
            ],
            [
              78.46259133077567,
              17.466614910883983
            ],
            [
              78.46259133077567,
              17.498211120927735
            ],
            [
              78.41043026119416,
              17.498211120927735
            ],
            [
              78.41043026119416,
              17.466614910883983
            ]
          ]
        ]
      },
      "properties": {
        "name": "Analysis Extent"
      }
    }
  ]
}