{
  "type": "FeatureCollection",
  "features": [
    {
      "type": "Feature",
      "geometry": {
        "type": "Polygon",
        "coordinates": [
          [
            [
              78.37783409064552,
              17.46628765171294
            ],
            [
              78.42107287200912,
              17.46628765171294
            ],
            [
              78.42107287200912,
              17.497883918592212
            ],
            [
              78.37783409064552,
              17.497883918592212
            ],
            [
              78.37783409064552,
              17.46628765171294
            ]
          ]
        ]
      },
      "properties": {
        "name": "Analysis Extent"
      }
    }
  ]
}