{
  "type": "FeatureCollection",
  "features": [
    {
      "type": "Feature",
      "geometry": {
        "type": "Polygon",
        "coordinates": [
          [
            [
              78.40590427424635,
              17.474591392501775
            ],
            [
              78.41785070342273,
              17.474591392501775
            ],
            [
              78.41785070342273,
              17.483084064157108
            ],
            [
              78.40590427424635,
              17.483084064157108
            ],
            [
              78.40590427424635,
              17.474591392501775
            ]
          ]
        ]
      },
      "properties": {
        "name": "Analysis Extent"
      }
    }
  ]
}