{
  "type": "FeatureCollection",
  "features": [
    {
      "type": "Feature",
      "geometry": {
        "type": "Point",
        "coordinates": [
          78.41383132977356,
          17.477841266638997
        ]
      },
      "properties": {
        "id": 1,
        "area_pixels": 3551,
        "from_class": "Background",
        "to_class": "Urban"
      }
    },
    {
      "type": "Feature",
      "geometry": {
        "type": "Point",
        "coordinates": [
          78.40744203028162,
          17.477125778973598
        ]
      },
      "properties": {
        "id": 2,
        "area_pixels": 1830,
        "from_class": "Urban",
        "to_class": "Background"
      }
    },
    {
      "type": "Feature",
      "geometry": {
        "type": "Point",
        "coordinates": [
          78.41668953586986,
          17.482032964525015
        ]
      },
      "properties": {
        "id": 3,
        "area_pixels": 295,
        "from_class": "Background",
        "to_class": "Urban"
      }
    },
    {
      "type": "Feature",
      "geometry": {
        "type": "Point",
        "coordinates": [
          78.41548034124604,
          17.48102376432302
        ]
      },
      "properties": {
        "id": 4,
        "area_pixels": 230,
        "from_class": "Background",
        "to_class": "Vegetation"
      }
    },
    {
      "type": "Feature",
      "geometry": {
        "type": "Point",
        "coordinates": [
          78.40614458216767,
          17.482347099324265
        ]
      },
      "properties": {
        "id": 5,
        "area_pixels": 74,
        "from_class": "Background",
        "to_class": "Vegetation"
      }
    },
    {
      "type": "Feature",
      "geometry": {
        "type": "Point",
        "coordinates": [
          78.41104642787394,
          17.481778853883732
        ]
      },
      "properties": {
        "id": 6,
        "area_pixels": 72,
        "from_class": "Urban",
        "to_class": "Background"
      }
    },
    {
      "type": "Feature",
      "geometry": {
        "type": "Point",
        "coordinates": [
          78.41470078669192,
          17.482910239321907
        ]
      },
      "properties": {
        "id": 7,
        "area_pixels": 51,
        "from_class": "Urban",
        "to_class": "Background"
      }
    }
  ]
}