{
"type": "FeatureCollection",
"name": "hmr_boundary",
"crs": { "type": "name", "properties": { "name": "urn:ogc:def:crs:OGC:1.3:CRS84" } },
"features": [
{ "type": "Feature", "properties": { "name": "Hyderabad Metropolitan Region" }, "geometry": { "type": "Polygon", "coordinates": [ [ [ 76.395343106756826, 16.795946365364244 ], [ 76.386132318454841, 17.994070711865433 ], [ 76.391766631165126, 18.12637076434784 ], [ 76.410905462586754, 18.257511736555347 ], [ 76.443397064884223, 18.386237943034878 ], [ 76.488961109039664, 18.511313565808599 ], [ 76.547190070054455, 18.63153445691642 ], [ 76.617551865229473, 18.745739788984082 ], [ 76.699393780354498, 18.852823443697361 ], [ 76.791947704999586, 18.951745022269932 ], [ 76.894336680847104, 19.041540357271604 ], [ 77.005582746341744, 19.121331402131503 ], [ 77.124616037349341, 19.190335373820975 ], [ 77.250285077756232, 19.247873026155855 ], [ 77.38136816700009, 19.293375936223107 ], [ 77.516585744573348, 19.326392694862744 ], [ 77.6546135858691, 19.346593903965452 ], [ 77.794096660653167, 19.353775898424676 ], [ 79.104481898362906, 19.355021212807298 ], [ 79.244043056888373, 19.348104482020478 ], [ 79.382203851129177, 19.32816096379776 ], [ 79.517607077482936, 19.295384313548595 ], [ 79.648924319247939, 19.250094527335911 ], [ 79.774869985553636, 19.192734573907344 ], [ 79.89421475852275, 19.123865710556004 ], [ 80.005798268846519, 19.044161553085043 ], [ 80.108540840697941, 18.954400987444647 ], [ 80.201454170882414, 18.855460025018672 ], [ 80.283650833076635, 18.748302714788529 ], [ 80.354352524667817, 18.633971233613885 ], [ 80.412896999878754, 18.513575280751827 ], [ 80.458743657507384, 18.388280904756886 ], [ 80.491477773890466, 18.259298890461565 ], [ 80.510813391041566, 18.127872831313304 ], [ 80.516594885996199, 17.995267008460768 ], [ 80.50737456298144, 16.794734270599808 ], [ 80.499547468065373, 16.661634053509907 ], [ 80.478215942108619, 16.529915308923172 ], [ 80.443612709260194, 16.400848110926784 ], [ 80.396096353279916, 16.275674631773388 ], [ 80.336147036933056, 16.155597425199076 ], [ 80.264361200111225, 16.041768143543671 ], [ 80.181445300935763, 15.935276780093547 ], [ 80.088208665702112, 15.837141524296673 ], [ 79.985555515440666, 15.748299313647335 ], [ 79.874476239321496, 15.6695971618317 ], [ 79.756037988196496, 15.601784337889457 ], [ 79.631374665197782, 15.545505465434106 ], [ 79.501676394320199, 15.501294604196989 ], [ 79.368178552048064, 15.469570368208524 ], [ 79.232150451021155, 15.450632125792762 ], [ 79.094883768139368, 15.444657316315306 ], [ 77.803702490991526, 15.445919886857428 ], [ 77.666512489551394, 15.452163062580784 ], [ 77.530615217971445, 15.471361969572355 ], [ 77.39730028293161, 15.503329040064214 ], [ 77.267832967528676, 15.547755395057788 ], [ 77.143442826443803, 15.604213885199664 ], [ 77.025312602909509, 15.672163207271728 ], [ 76.914567550539161, 15.7509530494385 ], [ 76.812265237598538, 15.839830210328763 ], [ 76.719385905728998, 15.937945630422103 ], [ 76.636823449867762, 16.044362269044147 ], [ 76.565377081501609, 16.158063756420422 ], [ 76.505743733709366, 16.277963747472107 ], [ 76.458511263863713, 16.40291590205738 ], [ 76.424152508401974, 16.531724414818171 ], [ 76.403020243623857, 16.663155016314267 ], [ 76.395343106756826, 16.795946365364244 ] ] ] } }
]
}
